FID,FID_1,Station_Nu,Station,Town,County,Major_Drai,Site_Type,Sample_Typ,Latitude,Longitude,PctImperv
0,2,S-69,NORTH BRANCH LITTLE RIVER - STATION 69,STANDISH,CUMBERLAND,SACO,STREAM/RIVER BIOMONITORING,MACROINVERTEBRATE,43.739245080000003,-70.524498530000002,0.0550000
1,3,S-70,NORTH BRANCH LITTLE RIVER - STATION 70,STANDISH,CUMBERLAND,SACO,STREAM/RIVER BIOMONITORING,MACROINVERTEBRATE,43.740078939999997,-70.521720889999997,0.0550000
2,87,S-655,MUDDY RIVER - STATION 655,NAPLES,CUMBERLAND,SACO,STREAM/RIVER BIOMONITORING,MACROINVERTEBRATE,43.949903319999997,-70.628226789999999,0.0050000
3,98,S-759,PISCATAQUA RIVER - STATION 759,FALMOUTH,CUMBERLAND,SACO,STREAM/RIVER BIOMONITORING,MACROINVERTEBRATE,43.737639170000001,-70.292731689999997,0.1190000
4,91,S-722,CROOKED RIVER - STATION 722,ALBANY TWP,OXFORD,SACO,STREAM/RIVER BIOMONITORING,MACROINVERTEBRATE,44.268946939999999,-70.785436079999997,0.0090000
5,13,S-158,CROOKED RIVER - STATION 158,WATERFORD,OXFORD,SACO,STREAM/RIVER BIOMONITORING,MACROINVERTEBRATE,44.231694500000003,-70.761018519999993,0.0150000
6,88,S-656,NORTHWEST RIVER - STATION 656,SEBAGO,CUMBERLAND,SACO,STREAM/RIVER BIOMONITORING,MACROINVERTEBRATE,43.862397700000002,-70.642222529999998,0.0300000
7,92,S-723,CROOKED RIVER - STATION 723,HARRISON,CUMBERLAND,SACO,STREAM/RIVER BIOMONITORING,MACROINVERTEBRATE,44.153144779999998,-70.602869080000005,0.0130000
8,11,S-156,ROYAL RIVER - STATION 156,NEW GLOUCESTER,CUMBERLAND,SACO,STREAM/RIVER BIOMONITORING,MACROINVERTEBRATE,43.993424990000001,-70.268411740000005,0.0240000
9,12,S-157,ROYAL RIVER - STATION 157,NEW GLOUCESTER,CUMBERLAND,SACO,STREAM/RIVER BIOMONITORING,MACROINVERTEBRATE,43.981186979999997,-70.265609370000007,0.0240000
10,24,S-237,CROOKED RIVER - STATION 237,NAPLES,CUMBERLAND,SACO,STREAM/RIVER BIOMONITORING,MACROINVERTEBRATE,43.998700759999998,-70.572092859999998,0.0320000
11,20,S-225,ROYAL RIVER - STATION 225,NEW GLOUCESTER,CUMBERLAND,SACO,STREAM/RIVER BIOMONITORING,MACROINVERTEBRATE,43.922612999999998,-70.262411999999998,0.0320000
12,23,S-228,COLLYER BROOK - STATION 228,GRAY,CUMBERLAND,SACO,STREAM/RIVER BIOMONITORING,MACROINVERTEBRATE,43.891939839999999,-70.277628829999998,0.0320000
13,99,S-760,ROYAL RIVER - STATION 760,GRAY,CUMBERLAND,SACO,STREAM/RIVER BIOMONITORING,MACROINVERTEBRATE,43.900078100000002,-70.272606260000003,0.0320000
14,100,S-761,ROYAL RIVER - STATION 761,GRAY,CUMBERLAND,SACO,STREAM/RIVER BIOMONITORING,MACROINVERTEBRATE,43.899216600000003,-70.274076870000002,0.0320000
15,21,S-226,ROYAL RIVER - STATION 226,GRAY,CUMBERLAND,SACO,STREAM/RIVER BIOMONITORING,MACROINVERTEBRATE,43.886060880000002,-70.279652279999993,0.0290000
16,103,S-799,ROYAL RIVER - STATION 799,GRAY,CUMBERLAND,SACO,STREAM/RIVER BIOMONITORING,MACROINVERTEBRATE,43.890750250000004,-70.277130580000005,0.0290000
17,96,S-757,EAST BRANCH PISCATAQUA RIVER - STATION 757,FALMOUTH,CUMBERLAND,SACO,STREAM/RIVER BIOMONITORING,MACROINVERTEBRATE,43.760777019999999,-70.262119560000002,0.0520000
18,86,S-654,CROOKED RIVER - STATION 654,NAPLES,CUMBERLAND,SACO,STREAM/RIVER BIOMONITORING,MACROINVERTEBRATE,43.961431910000002,-70.567526639999997,0.0470000
19,18,S-223,PRESUMPSCOT RIVER - STATION 223,WINDHAM,CUMBERLAND,SACO,STREAM/RIVER BIOMONITORING,MACROINVERTEBRATE,43.829075910000000,-70.448285850000005,0.0550000
20,70,S-462,PRESUMPSCOT RIVER - STATION 462,STANDISH,CUMBERLAND,SACO,STREAM/RIVER BIOMONITORING,MACROINVERTEBRATE,43.831088100000002,-70.451124419999999,0.0550000
21,55,S-394,PLEASANT RIVER (PRESUMPSCOT) - STATION 394,GRAY,CUMBERLAND,SACO,STREAM/RIVER BIOMONITORING,MACROINVERTEBRATE,43.864130770000003,-70.344451690000000,0.0450000
22,27,S-242,ROYAL RIVER - STATION 242,YARMOUTH,CUMBERLAND,SACO,STREAM/RIVER BIOMONITORING,MACROINVERTEBRATE,43.800931640000002,-70.180002049999999,0.1870000
23,10,S-155,PLEASANT RIVER (PRESUMPSCOT) - STATION 155,WINDHAM,CUMBERLAND,SACO,STREAM/RIVER BIOMONITORING,MACROINVERTEBRATE,43.786726840000000,-70.420644370000005,0.0650000
24,19,S-224,PRESUMPSCOT RIVER - STATION 224,WINDHAM,CUMBERLAND,SACO,STREAM/RIVER BIOMONITORING,MACROINVERTEBRATE,43.725609800000001,-70.417877880000006,0.1210000
25,42,S-329,PRESUMPSCOT RIVER - STATION 329,WINDHAM,CUMBERLAND,SACO,STREAM/RIVER BIOMONITORING,MACROINVERTEBRATE,43.733670990000000,-70.423809079999998,0.1210000
26,31,S-296,PRESUMPSCOT RIVER - STATION 296,WESTBROOK,CUMBERLAND,SACO,STREAM/RIVER BIOMONITORING,MACROINVERTEBRATE,43.687807999999997,-70.342983000000004,0.3150000
27,68,S-456,PRESUMPSCOT RIVER - STATION 456,WESTBROOK,CUMBERLAND,SACO,STREAM/RIVER BIOMONITORING,MACROINVERTEBRATE,43.690690549999999,-70.334114040000003,0.3150000
28,48,S-380,MILL BROOK - STATION 380,WESTBROOK,CUMBERLAND,SACO,STREAM/RIVER BIOMONITORING,MACROINVERTEBRATE,43.741065700000000,-70.353607030000006,0.0620000
29,49,S-381,MILL BROOK - STATION 381,WESTBROOK,CUMBERLAND,SACO,STREAM/RIVER BIOMONITORING,MACROINVERTEBRATE,43.702838260000000,-70.339294030000005,0.1320000
30,97,S-758,PISCATAQUA RIVER - STATION 758,CUMBERLAND,CUMBERLAND,SACO,STREAM/RIVER BIOMONITORING,MACROINVERTEBRATE,43.813227140000002,-70.302089899999999,0.0770000
31,58,S-409,LONG CREEK (BLANCHETTE BROOK) - STATION 409,WESTBROOK,CUMBERLAND,SACO,STREAM/RIVER BIOMONITORING,MACROINVERTEBRATE,43.648167819999998,-70.350249160000004,0.2260000
32,60,S-411,LONG CREEK - STATION 411,WESTBROOK,CUMBERLAND,SACO,STREAM/RIVER BIOMONITORING,MACROINVERTEBRATE,43.647374800000001,-70.351564339999996,0.1140000
33,111,S-1015,LONG CREEK - STATION 1015,SOUTH PORTLAND,CUMBERLAND,SACO,STREAM/RIVER BIOMONITORING,MACROINVERTEBRATE,43.643639999999998,-70.353189999999998,0.1140000
34,59,S-410,LONG CREEK - STATION 410,SOUTH PORTLAND,CUMBERLAND,SACO,STREAM/RIVER BIOMONITORING,MACROINVERTEBRATE,43.639837909999997,-70.332005899999999,0.3260000
35,64,S-415,LONG CREEK - STATION 415,SOUTH PORTLAND,CUMBERLAND,SACO,STREAM/RIVER BIOMONITORING,MACROINVERTEBRATE,43.634958359999999,-70.326852119999998,0.3260000
36,81,S-570,LONG CREEK - STATION 570,SOUTH PORTLAND,CUMBERLAND,SACO,STREAM/RIVER BIOMONITORING,MACROINVERTEBRATE,43.643943620000002,-70.335480169999997,0.3260000
37,94,S-752,LONG CREEK - STATION 752,SOUTH PORTLAND,CUMBERLAND,SACO,STREAM/RIVER BIOMONITORING,MACROINVERTEBRATE,43.636639330000001,-70.329030709999998,0.3260000
38,63,S-414,LONG CREEK - STATION 414,SOUTH PORTLAND,CUMBERLAND,SACO,STREAM/RIVER BIOMONITORING,MACROINVERTEBRATE,43.635416550000002,-70.326260210000001,0.4260000
39,57,S-408,SOUTH BRANCH LONG CREEK - STATION 408,SOUTH PORTLAND,CUMBERLAND,SACO,STREAM/RIVER BIOMONITORING,MACROINVERTEBRATE,43.632774540000000,-70.327454720000006,0.5760000
40,82,S-581,SOUTH BRANCH LONG CREEK - STATION 581,SOUTH PORTLAND,CUMBERLAND,SACO,STREAM/RIVER BIOMONITORING,MACROINVERTEBRATE,43.632780089999997,-70.325602230000001,0.5760000
41,95,S-753,SOUTH BRANCH LONG CREEK - STATION 753,SOUTH PORTLAND,CUMBERLAND,SACO,STREAM/RIVER BIOMONITORING,MACROINVERTEBRATE,43.633654700000001,-70.321401030000004,0.5760000
42,14,S-218,RED BROOK - STATION 218,SCARBOROUGH,CUMBERLAND,SACO,STREAM/RIVER BIOMONITORING,MACROINVERTEBRATE,43.636690320000000,-70.377608980000005,0.1360000
43,15,S-219,RED BROOK - STATION 219,SCARBOROUGH,CUMBERLAND,SACO,STREAM/RIVER BIOMONITORING,MACROINVERTEBRATE,43.633469970000000,-70.376587479999998,0.1360000
44,61,S-412,RED BROOK - STATION 412,SOUTH PORTLAND,CUMBERLAND,SACO,STREAM/RIVER BIOMONITORING,MACROINVERTEBRATE,43.627943440000003,-70.325611670000001,0.1360000
45,62,S-413,RED BROOK - STATION 413,SCARBOROUGH,CUMBERLAND,SACO,STREAM/RIVER BIOMONITORING,MACROINVERTEBRATE,43.626425720000000,-70.346028959999998,0.1360000
46,54,S-387,BARBERRY CREEK - STATION 387,SOUTH PORTLAND,CUMBERLAND,SACO,STREAM/RIVER BIOMONITORING,MACROINVERTEBRATE,43.626482639999999,-70.278076420000005,0.2960000
47,41,S-328,PRESUMPSCOT RIVER - STATION 328,WINDHAM,CUMBERLAND,SACO,STREAM/RIVER BIOMONITORING,MACROINVERTEBRATE,43.739938279999997,-70.430527769999998,0.0940000
48,32,S-301,KIMBALL BROOK - STATION 301,SOUTH PORTLAND,CUMBERLAND,SACO,STREAM/RIVER BIOMONITORING,MACROINVERTEBRATE,43.623752979999999,-70.259718809999995,0.0700000
49,33,S-302,TROUT BROOK - STATION 302,SOUTH PORTLAND,CUMBERLAND,SACO,STREAM/RIVER BIOMONITORING,MACROINVERTEBRATE,43.633532430000002,-70.249842790000002,0.1730000
50,67,S-454,TROUT BROOK - STATION 454,SOUTH PORTLAND,CUMBERLAND,SACO,STREAM/RIVER BIOMONITORING,MACROINVERTEBRATE,43.629584520000002,-70.249207190000007,0.1730000
51,89,S-675,TROUT BROOK - STATION 675,SOUTH PORTLAND,CUMBERLAND,SACO,STREAM/RIVER BIOMONITORING,MACROINVERTEBRATE,43.629463999999999,-70.245879000000002,0.1730000
52,113,S-1040,TROUT BROOK - STATION 1040,CAPE ELIZABETH,CUMBERLAND,SACO,STREAM/RIVER BIOMONITORING,MACROINVERTEBRATE,43.619782000000001,-70.249168999999995,0.1730000
53,90,S-692,UNNAMED STREAM (CAPE ELIZABETH) - STATION 692,CAPE ELIZABETH,CUMBERLAND,SACO,STREAM/RIVER BIOMONITORING,MACROINVERTEBRATE,43.619222940000000,-70.217018690000003,0.1000000
54,83,S-638,NASON'S BROOK - STATION 638,PORTLAND,CUMBERLAND,SACO,STREAM/RIVER BIOMONITORING,MACROINVERTEBRATE,43.670712039999998,-70.319216069999996,0.3210000
55,28,S-256,CAPISIC BROOK - STATION 256,PORTLAND,CUMBERLAND,SACO,STREAM/RIVER BIOMONITORING,MACROINVERTEBRATE,43.684973530000001,-70.302966269999999,0.3070000
56,29,S-257,CAPISIC BROOK - STATION 257,PORTLAND,CUMBERLAND,SACO,STREAM/RIVER BIOMONITORING,MACROINVERTEBRATE,43.670352729999998,-70.308444809999997,0.3070000
57,106,S-931,CAPISIC BROOK - STATION 931,PORTLAND,CUMBERLAND,SACO,STREAM/RIVER BIOMONITORING,MACROINVERTEBRATE,43.686000030000002,-70.310319980000003,0.3070000
58,107,S-932,CAPISIC BROOK - STATION 932,PORTLAND,CUMBERLAND,SACO,STREAM/RIVER BIOMONITORING,MACROINVERTEBRATE,43.685969860000000,-70.312700010000000,0.3070000
59,108,S-933,CAPISIC BROOK - UNNAMED TRIBUTARY - STATION 933,PORTLAND,CUMBERLAND,SACO,STREAM/RIVER BIOMONITORING,MACROINVERTEBRATE,43.679719990000002,-70.317240020000000,0.3070000
60,109,S-934,CAPISIC BROOK - STATION 934,PORTLAND,CUMBERLAND,SACO,STREAM/RIVER BIOMONITORING,MACROINVERTEBRATE,43.677960040000002,-70.315210030000003,0.3070000
61,112,S-1039,CAPISIC BROOK - STATION 1039,PORTLAND,CUMBERLAND,SACO,STREAM/RIVER BIOMONITORING,MACROINVERTEBRATE,43.684300999999998,-70.313998999999995,0.3070000
62,102,S-796,STROUDWATER RIVER - STATION 796,GORHAM,CUMBERLAND,SACO,STREAM/RIVER BIOMONITORING,MACROINVERTEBRATE,43.638548780000001,-70.446485280000005,0.0220000
63,52,S-385,DOLE BROOK - STATION 385,PORTLAND,CUMBERLAND,SACO,STREAM/RIVER BIOMONITORING,MACROINVERTEBRATE,43.704085370000001,-70.300678800000000,0.2750000
64,53,S-386,DOLE BROOK - STATION 386,PORTLAND,CUMBERLAND,SACO,STREAM/RIVER BIOMONITORING,MACROINVERTEBRATE,43.705048079999997,-70.306311070000007,0.2750000
65,93,S-751,DOLE BROOK - STATION 751,PORTLAND,CUMBERLAND,SACO,STREAM/RIVER BIOMONITORING,MACROINVERTEBRATE,43.717053819999997,-70.309108539999997,0.2750000
66,5,S-72,PRESUMPSCOT RIVER - STATION 72,WESTBROOK,CUMBERLAND,SACO,STREAM/RIVER BIOMONITORING,MACROINVERTEBRATE,43.702384870000003,-70.325701800000004,0.3210000
67,0,S-66,STROUDWATER RIVER - STATION 66,GORHAM,CUMBERLAND,SACO,STREAM/RIVER BIOMONITORING,MACROINVERTEBRATE,43.644781760000001,-70.409495800000002,0.0390000
68,1,S-67,STROUDWATER RIVER - STATION 67,GORHAM,CUMBERLAND,SACO,STREAM/RIVER BIOMONITORING,MACROINVERTEBRATE,43.643035470000001,-70.411921989999996,0.0390000
69,26,S-240,STROUDWATER RIVER - STATION 240,GORHAM,CUMBERLAND,SACO,STREAM/RIVER BIOMONITORING,MACROINVERTEBRATE,43.645586629999997,-70.408843959999999,0.0390000
70,65,S-448,MILE BROOK - STATION 448,CASCO,CUMBERLAND,SACO,STREAM/RIVER BIOMONITORING,MACROINVERTEBRATE,44.012334000000003,-70.529006999999993,0.0260000
71,66,S-449,MILE BROOK - STATION 449,CASCO,CUMBERLAND,SACO,STREAM/RIVER BIOMONITORING,MACROINVERTEBRATE,44.008891239999997,-70.524746010000001,0.0260000
72,110,S-998,MILE BROOK - STATION 998,CASCO,CUMBERLAND,SACO,STREAM/RIVER BIOMONITORING,MACROINVERTEBRATE,44.010497999999998,-70.534445000000005,0.0260000
73,75,S-474,TANNERY BROOK - STATION 474,GORHAM,CUMBERLAND,SACO,STREAM/RIVER BIOMONITORING,MACROINVERTEBRATE,43.701356930000003,-70.436280900000000,0.0430000
74,50,S-382,DOUGLAS BROOK - STATION 382,GORHAM,CUMBERLAND,SACO,STREAM/RIVER BIOMONITORING,MACROINVERTEBRATE,43.707333210000002,-70.519133089999997,0.0420000
75,51,S-383,DOUGLAS BROOK - STATION 383,GORHAM,CUMBERLAND,SACO,STREAM/RIVER BIOMONITORING,MACROINVERTEBRATE,43.727144660000000,-70.471037740000000,0.0420000
76,123,S-1075,NORTH BRANCH LITTLE RIVER - UNNAMED TRIBUTARY - STATION 1075,STANDISH,CUMBERLAND,SACO,STREAM/RIVER BIOMONITORING,MACROINVERTEBRATE,43.734043999999997,-70.533506000000003,0.0370000
77,115,S-1067,NORTH BRANCH LITTLE RIVER - UNNAMED TRIBUTARY - STATION 1067,STANDISH,CUMBERLAND,SACO,STREAM/RIVER BIOMONITORING,MACROINVERTEBRATE,43.748427999999997,-70.537809999999993,0.0940000
78,116,S-1068,NORTH BRANCH LITTLE RIVER - UNNAMED TRIBUTARY - STATION 1068,STANDISH,CUMBERLAND,SACO,STREAM/RIVER BIOMONITORING,MACROINVERTEBRATE,43.747782999999998,-70.537558000000004,0.0940000
79,117,S-1069,NORTH BRANCH LITTLE RIVER - UNNAMED TRIBUTARY - STATION 1069,STANDISH,CUMBERLAND,SACO,STREAM/RIVER BIOMONITORING,MACROINVERTEBRATE,43.747211000000000,-70.537270000000007,0.0940000
80,118,S-1070,NORTH BRANCH LITTLE RIVER - UNNAMED TRIBUTARY - STATION 1070,STANDISH,CUMBERLAND,SACO,STREAM/RIVER BIOMONITORING,MACROINVERTEBRATE,43.746988000000002,-70.537103000000002,0.0940000
81,119,S-1071,NORTH BRANCH LITTLE RIVER - UNNAMED TRIBUTARY - STATION 1071,STANDISH,CUMBERLAND,SACO,STREAM/RIVER BIOMONITORING,MACROINVERTEBRATE,43.746558000000000,-70.536893000000006,0.0940000
82,120,S-1072,NORTH BRANCH LITTLE RIVER - UNNAMED TRIBUTARY - STATION 1072,STANDISH,CUMBERLAND,SACO,STREAM/RIVER BIOMONITORING,MACROINVERTEBRATE,43.745041999999998,-70.535190000000000,0.0940000
83,121,S-1073,NORTH BRANCH LITTLE RIVER - UNNAMED TRIBUTARY - STATION 1073,STANDISH,CUMBERLAND,SACO,STREAM/RIVER BIOMONITORING,MACROINVERTEBRATE,43.744957999999997,-70.535386000000003,0.0940000
84,122,S-1074,NORTH BRANCH LITTLE RIVER - UNNAMED TRIBUTARY - STATION 1074,STANDISH,CUMBERLAND,SACO,STREAM/RIVER BIOMONITORING,MACROINVERTEBRATE,43.744706000000001,-70.534039000000007,0.0940000
85,124,S-1076,NORTH BRANCH LITTLE RIVER - UNNAMED TRIBUTARY - STATION 1076,STANDISH,CUMBERLAND,SACO,STREAM/RIVER BIOMONITORING,MACROINVERTEBRATE,43.749569000000001,-70.535306000000006,0.0940000
86,56,S-395,BAKER BROOK - STATION 395,WINDHAM,CUMBERLAND,SACO,STREAM/RIVER BIOMONITORING,MACROINVERTEBRATE,43.815032930000001,-70.381067340000001,0.0170000
87,71,S-470,TANNERY BROOK - STATION 470,GORHAM,CUMBERLAND,SACO,STREAM/RIVER BIOMONITORING,MACROINVERTEBRATE,43.686453389999997,-70.441635890000001,0.1430000
88,72,S-471,TANNERY BROOK - STATION 471,GORHAM,CUMBERLAND,SACO,STREAM/RIVER BIOMONITORING,MACROINVERTEBRATE,43.687505020000003,-70.439517019999997,0.1430000
89,80,S-562,TANNERY BROOK - STATION 562,GORHAM,CUMBERLAND,SACO,STREAM/RIVER BIOMONITORING,MACROINVERTEBRATE,43.686677549999999,-70.446167299999999,0.1430000
90,101,S-795,KIMBALL BROOK - STATION 795,SOUTH PORTLAND,CUMBERLAND,SACO,STREAM/RIVER BIOMONITORING,MACROINVERTEBRATE,43.630604110000000,-70.251714379999996,0.4300000
91,46,S-348,MERRILL BROOK - STATION 348,FREEPORT,CUMBERLAND,SACO,STREAM/RIVER BIOMONITORING,MACROINVERTEBRATE,43.851069809999998,-70.133806109999995,0.1190000
92,45,S-332,MARE BROOK - UNNAMED TRIBUTARY - STATION 332,BRUNSWICK,CUMBERLAND,SACO,STREAM/RIVER BIOMONITORING,MACROINVERTEBRATE,43.872274930000003,-69.937526199999994,0.0430000
93,8,S-143,MARE BROOK - STATION 143,BRUNSWICK,CUMBERLAND,SACO,STREAM/RIVER BIOMONITORING,MACROINVERTEBRATE,43.895241200000001,-69.952132689999999,0.1780000
94,9,S-144,MARE BROOK - STATION 144,BRUNSWICK,CUMBERLAND,SACO,STREAM/RIVER BIOMONITORING,MACROINVERTEBRATE,43.879597859999997,-69.923851299999995,0.1780000
95,43,S-330,MARE BROOK - UNNAMED TRIBUTARY - STATION 330,BRUNSWICK,CUMBERLAND,SACO,STREAM/RIVER BIOMONITORING,MACROINVERTEBRATE,43.885027569999998,-69.921005519999994,0.1780000
96,44,S-331,MARE BROOK - STATION 331,BRUNSWICK,CUMBERLAND,SACO,STREAM/RIVER BIOMONITORING,MACROINVERTEBRATE,43.882934870000000,-69.932518860000002,0.1780000
97,69,S-457,MARE BROOK - STATION 457,BRUNSWICK,CUMBERLAND,SACO,STREAM/RIVER BIOMONITORING,MACROINVERTEBRATE,43.881958339999997,-69.923665799999995,0.1780000
98,114,S-1064,MARE BROOK - STATION 1064,BRUNSWICK,CUMBERLAND,SACO,STREAM/RIVER BIOMONITORING,MACROINVERTEBRATE,43.900379999999998,-69.971860000000007,0.1780000
99,16,S-220,HATCHERY BROOK - STATION 220,GRAY,CUMBERLAND,SACO,STREAM/RIVER BIOMONITORING,MACROINVERTEBRATE,43.920797710000002,-70.346160979999993,0.0730000
100,36,S-316,COLE BROOK - STATION 316,GRAY,CUMBERLAND,SACO,STREAM/RIVER BIOMONITORING,MACROINVERTEBRATE,43.936574000000000,-70.339601349999995,0.0700000
101,37,S-317,COLE BROOK - STATION 317,GRAY,CUMBERLAND,SACO,STREAM/RIVER BIOMONITORING,MACROINVERTEBRATE,43.923885259999999,-70.339484100000007,0.0700000
102,84,S-639,NORTON BROOK - STATION 639,FALMOUTH,CUMBERLAND,SACO,STREAM/RIVER BIOMONITORING,MACROINVERTEBRATE,43.739852440000000,-70.219845570000004,0.1160000
103,125,S-1126,NORTON BROOK - STATION 1126,FALMOUTH,CUMBERLAND,SACO,STREAM/RIVER BIOMONITORING,MACROINVERTEBRATE,43.735266000000003,-70.223158999999995,0.1160000
104,17,S-221,LIBBY BROOK - STATION 221,GRAY,CUMBERLAND,SACO,STREAM/RIVER BIOMONITORING,MACROINVERTEBRATE,43.919972289999997,-70.327830149999997,0.0490000
105,47,S-379,LIBBY BROOK - STATION 379,GRAY,CUMBERLAND,SACO,STREAM/RIVER BIOMONITORING,MACROINVERTEBRATE,43.911464930000001,-70.332632079999996,0.0490000
106,6,S-141,EDDY BROOK - STATION 141,NEW GLOUCESTER,CUMBERLAND,SACO,STREAM/RIVER BIOMONITORING,MACROINVERTEBRATE,43.942837210000000,-70.328180390000000,0.0460000
107,7,S-142,EDDY BROOK - STATION 142,NEW GLOUCESTER,CUMBERLAND,SACO,STREAM/RIVER BIOMONITORING,MACROINVERTEBRATE,43.934897610000000,-70.323678029999996,0.0460000
108,35,S-304,FROST GULLY BROOK - STATION 304,FREEPORT,CUMBERLAND,SACO,STREAM/RIVER BIOMONITORING,MACROINVERTEBRATE,43.861513090000003,-70.092406990000001,0.0810000
109,34,S-303,FROST GULLY BROOK - STATION 303,FREEPORT,CUMBERLAND,SACO,STREAM/RIVER BIOMONITORING,MACROINVERTEBRATE,43.861094379999997,-70.094289700000004,0.1150000
110,76,S-477,FROST GULLY BROOK - STATION 477,FREEPORT,CUMBERLAND,SACO,STREAM/RIVER BIOMONITORING,MACROINVERTEBRATE,43.860181930000003,-70.093152489999994,0.1150000
111,22,S-227,COLLYER BROOK - STATION 227,GRAY,CUMBERLAND,SACO,STREAM/RIVER BIOMONITORING,MACROINVERTEBRATE,43.896779490000000,-70.294119240000001,0.0210000
112,77,S-496,CONCORD GULLY - STATION 496,FREEPORT,CUMBERLAND,SACO,STREAM/RIVER BIOMONITORING,MACROINVERTEBRATE,43.845300690000002,-70.108418020000002,0.1790000
113,78,S-497,CONCORD GULLY - STATION 497,FREEPORT,CUMBERLAND,SACO,STREAM/RIVER BIOMONITORING,MACROINVERTEBRATE,43.846275149999997,-70.106268700000001,0.1790000
114,79,S-498,CONCORD GULLY - STATION 498,FREEPORT,CUMBERLAND,SACO,STREAM/RIVER BIOMONITORING,MACROINVERTEBRATE,43.846025570000002,-70.104429229999994,0.1790000
115,105,S-816,MOOSE BROOK - STATION 816,AUBURN,ANDROSCOGGIN,SACO,STREAM/RIVER BIOMONITORING,MACROINVERTEBRATE,44.022627290000003,-70.274036080000002,0.0930000
116,85,S-640,UNNAMED STREAM (PORTLAND 6) - STATION 640,FALMOUTH,CUMBERLAND,SACO,STREAM/RIVER BIOMONITORING,MACROINVERTEBRATE,43.703890809999997,-70.262914899999998,0.1310000
117,4,S-71,PRESUMPSCOT RIVER - STATION 71,WESTBROOK,CUMBERLAND,SACO,STREAM/RIVER BIOMONITORING,MACROINVERTEBRATE,43.680889909999998,-70.371675069999995,0.0000000
118,25,S-238,PRESUMPSCOT RIVER - STATION 238,WESTBROOK,CUMBERLAND,SACO,STREAM/RIVER BIOMONITORING,MACROINVERTEBRATE,43.682198520000000,-70.354644350000001,0.0000000
119,30,S-295,PRESUMPSCOT RIVER - STATION 295,WESTBROOK,CUMBERLAND,SACO,STREAM/RIVER BIOMONITORING,MACROINVERTEBRATE,43.677916549999999,-70.365339849999998,0.0000000
120,38,S-325,PRESUMPSCOT RIVER - STATION 325,WINDHAM,CUMBERLAND,SACO,STREAM/RIVER BIOMONITORING,MACROINVERTEBRATE,43.777185150000001,-70.451834529999999,0.0000000
121,39,S-326,PRESUMPSCOT RIVER - STATION 326,WINDHAM,CUMBERLAND,SACO,STREAM/RIVER BIOMONITORING,MACROINVERTEBRATE,43.769707130000000,-70.445813479999998,0.0000000
122,40,S-327,PRESUMPSCOT RIVER - STATION 327,WINDHAM,CUMBERLAND,SACO,STREAM/RIVER BIOMONITORING,MACROINVERTEBRATE,43.745005519999999,-70.439314120000006,0.0000000
123,73,S-472,TANNERY BROOK - STATION 472,GORHAM,CUMBERLAND,SACO,STREAM/RIVER BIOMONITORING,MACROINVERTEBRATE,43.689496149999997,-70.436869270000003,0.0000000
124,74,S-473,TANNERY BROOK - STATION 473,GORHAM,CUMBERLAND,SACO,STREAM/RIVER BIOMONITORING,MACROINVERTEBRATE,43.690197210000001,-70.436284090000001,0.0000000
125,104,S-802,PRESUMPSCOT RIVER - STATION 802,FALMOUTH,CUMBERLAND,SACO,STREAM/RIVER BIOMONITORING,MACROINVERTEBRATE,43.728191170000002,-70.285566810000006,0.0000000